{
  "type": "FeatureCollection",
  "features": [
    {
      "type": "Feature",
      "properties": {
        "norad_id": 35902,
        "name": "COSMOS 2251 DEB",
        "group": "cosmos-2251-debris",
        "lat": -71.95687695953136,
        "lon": 115.54033814843011,
        "alt_km": 804.0948547519074,
        "timestamp": "2025-12-13T05:42:57.969142+00:00",
        "meta_object_name": "COSMOS 2251 DEB",
        "meta_object_id": "1993-036AUR",
        "meta_epoch": "2025-12-12T01:33:56.017152",
        "meta_mean_motion": 14.26898947,
        "meta_eccentricity": 0.01020569,
        "meta_inclination": 73.9828,
        "meta_ra_of_asc_node": 235.8058,
        "meta_arg_of_pericenter": 350.6999,
        "meta_mean_anomaly": 9.2255,
        "meta_ephemeris_type": 0,
        "meta_classification_type": "U",
        "meta_norad_cat_id": 35902,
        "meta_element_set_no": 999,
        "meta_rev_at_epoch": 61120,
        "meta_bstar": 0.0016300387,
        "meta_mean_motion_dot": 4.159e-05,
        "meta_mean_motion_ddot": 0,
        "tle_line1": "1 35902U 93036AUR 25346.06523168  .00004159  00000+0  16300-2 0  9991",
        "tle_line2": "2 35902  73.9828 235.8058 0102056 350.6999   9.2255 14.26898947611205"
      },
      "geometry": {
        "type": "Point",
        "coordinates": [
          115.54033814843011,
          -71.95687695953136
        ]
      }
    },
    {
      "type": "Feature",
      "properties": {
        "norad_id": 35905,
        "name": "COSMOS 2251 DEB",
        "group": "cosmos-2251-debris",
        "lat": -13.825922961163075,
        "lon": -154.23874379768316,
        "alt_km": 538.5165690238246,
        "timestamp": "2025-12-13T05:42:57.969153+00:00",
        "meta_object_name": "COSMOS 2251 DEB",
        "meta_object_id": "1993-036AUU",
        "meta_epoch": "2025-12-11T08:55:52.650624",
        "meta_mean_motion": 14.98993139,
        "meta_eccentricity": 0.00908105,
        "meta_inclination": 74.0316,
        "meta_ra_of_asc_node": 213.5888,
        "meta_arg_of_pericenter": 293.9806,
        "meta_mean_anomaly": 65.1892,
        "meta_ephemeris_type": 0,
        "meta_classification_type": "U",
        "meta_norad_cat_id": 35905,
        "meta_element_set_no": 999,
        "meta_rev_at_epoch": 88562,
        "meta_bstar": 0.0009939745,
        "meta_mean_motion_dot": 0.00013108,
        "meta_mean_motion_ddot": 0,
        "tle_line1": "1 35905U 93036AUU 25345.37213716  .00013108  00000+0  99397-3 0  9994",
        "tle_line2": "2 35905  74.0316 213.5888 0090810 293.9806  65.1892 14.98993139885621"
      },
      "geometry": {
        "type": "Point",
        "coordinates": [
          -154.23874379768316,
          -13.825922961163075
        ]
      }
    },
    {
      "type": "Feature",
      "properties": {
        "norad_id": 35959,
        "name": "COSMOS 2251 DEB",
        "group": "cosmos-2251-debris",
        "lat": 0.16335230874266382,
        "lon": -48.80118229129505,
        "alt_km": 767.3495439754824,
        "timestamp": "2025-12-13T05:42:57.969163+00:00",
        "meta_object_name": "COSMOS 2251 DEB",
        "meta_object_id": "1993-036AUZ",
        "meta_epoch": "2025-12-12T04:36:10.980864",
        "meta_mean_motion": 14.34135364,
        "meta_eccentricity": 0.00215191,
        "meta_inclination": 74.0326,
        "meta_ra_of_asc_node": 313.0668,
        "meta_arg_of_pericenter": 33.709,
        "meta_mean_anomaly": 326.5425,
        "meta_ephemeris_type": 0,
        "meta_classification_type": "U",
        "meta_norad_cat_id": 35959,
        "meta_element_set_no": 999,
        "meta_rev_at_epoch": 84920,
        "meta_bstar": 0.00020105007,
        "meta_mean_motion_dot": 5.38e-06,
        "meta_mean_motion_ddot": 0,
        "tle_line1": "1 35959U 93036AUZ 25346.19179376  .00000538  00000+0  20105-3 0  9991",
        "tle_line2": "2 35959  74.0326 313.0668 0021519  33.7090 326.5425 14.34135364849206"
      },
      "geometry": {
        "type": "Point",
        "coordinates": [
          -48.80118229129505,
          0.16335230874266382
        ]
      }
    },
    {
      "type": "Feature",
      "properties": {
        "norad_id": 35961,
        "name": "COSMOS 2251 DEB",
        "group": "cosmos-2251-debris",
        "lat": -58.365762194607356,
        "lon": 51.21049449503265,
        "alt_km": 917.2823229369396,
        "timestamp": "2025-12-13T05:42:57.969174+00:00",
        "meta_object_name": "COSMOS 2251 DEB",
        "meta_object_id": "1993-036AVB",
        "meta_epoch": "2025-12-11T08:09:55.723392",
        "meta_mean_motion": 14.05375805,
        "meta_eccentricity": 0.01919806,
        "meta_inclination": 73.9248,
        "meta_ra_of_asc_node": 206.6381,
        "meta_arg_of_pericenter": 140.2943,
        "meta_mean_anomaly": 221.2432,
        "meta_ephemeris_type": 0,
        "meta_classification_type": "U",
        "meta_norad_cat_id": 35961,
        "meta_element_set_no": 999,
        "meta_rev_at_epoch": 62662,
        "meta_bstar": 0.0012047143,
        "meta_mean_motion_dot": 2.281e-05,
        "meta_mean_motion_ddot": 0,
        "tle_line1": "1 35961U 93036AVB 25345.34022828  .00002281  00000+0  12047-2 0  9991",
        "tle_line2": "2 35961  73.9248 206.6381 0191980 140.2943 221.2432 14.05375805626622"
      },
      "geometry": {
        "type": "Point",
        "coordinates": [
          51.21049449503265,
          -58.365762194607356
        ]
      }
    },
    {
      "type": "Feature",
      "properties": {
        "norad_id": 35979,
        "name": "COSMOS 2251 DEB",
        "group": "cosmos-2251-debris",
        "lat": -66.34105151983636,
        "lon": 98.2931243488396,
        "alt_km": 671.7580950497213,
        "timestamp": "2025-12-13T05:42:57.969184+00:00",
        "meta_object_name": "COSMOS 2251 DEB",
        "meta_object_id": "1993-036AVV",
        "meta_epoch": "2025-12-09T11:50:03.223968",
        "meta_mean_motion": 14.74576302,
        "meta_eccentricity": 0.00588204,
        "meta_inclination": 74.0104,
        "meta_ra_of_asc_node": 244.7352,
        "meta_arg_of_pericenter": 17.6471,
        "meta_mean_anomaly": 162.3797,
        "meta_ephemeris_type": 0,
        "meta_classification_type": "U",
        "meta_norad_cat_id": 35979,
        "meta_element_set_no": 999,
        "meta_rev_at_epoch": 88585,
        "meta_bstar": 0.0014101379,
        "meta_mean_motion_dot": 9.639e-05,
        "meta_mean_motion_ddot": 0,
        "tle_line1": "1 35979U 93036AVV 25343.49309287  .00009639  00000+0  14101-2 0  9998",
        "tle_line2": "2 35979  74.0104 244.7352 0058820  17.6471 162.3797 14.74576302885855"
      },
      "geometry": {
        "type": "Point",
        "coordinates": [
          98.2931243488396,
          -66.34105151983636
        ]
      }
    },
    {
      "type": "Feature",
      "properties": {
        "norad_id": 35980,
        "name": "COSMOS 2251 DEB",
        "group": "cosmos-2251-debris",
        "lat": 69.62470525601412,
        "lon": -109.26838876536142,
        "alt_km": 722.1075248262559,
        "timestamp": "2025-12-13T05:42:57.969195+00:00",
        "meta_object_name": "COSMOS 2251 DEB",
        "meta_object_id": "1993-036AVW",
        "meta_epoch": "2025-12-02T19:08:08.015136",
        "meta_mean_motion": 14.59062146,
        "meta_eccentricity": 0.00537712,
        "meta_inclination": 73.91,
        "meta_ra_of_asc_node": 141.7735,
        "meta_arg_of_pericenter": 277.5645,
        "meta_mean_anomaly": 81.9413,
        "meta_ephemeris_type": 0,
        "meta_classification_type": "U",
        "meta_norad_cat_id": 35980,
        "meta_element_set_no": 999,
        "meta_rev_at_epoch": 61341,
        "meta_bstar": 0.002036555,
        "meta_mean_motion_dot": 9.752e-05,
        "meta_mean_motion_ddot": 0,
        "tle_line1": "1 35980U 93036AVW 25336.79731499  .00009752  00000+0  20366-2 0  9995",
        "tle_line2": "2 35980  73.9100 141.7735 0053771 277.5645  81.9413 14.59062146613413"
      },
      "geometry": {
        "type": "Point",
        "coordinates": [
          -109.26838876536142,
          69.62470525601412
        ]
      }
    },
    {
      "type": "Feature",
      "properties": {
        "norad_id": 35982,
        "name": "COSMOS 2251 DEB",
        "group": "cosmos-2251-debris",
        "lat": 32.16987962148872,
        "lon": -3.6667681187534096,
        "alt_km": 639.0925315539707,
        "timestamp": "2025-12-13T05:42:57.969205+00:00",
        "meta_object_name": "COSMOS 2251 DEB",
        "meta_object_id": "1993-036AVY",
        "meta_epoch": "2025-12-12T06:35:04.727328",
        "meta_mean_motion": 14.62746296,
        "meta_eccentricity": 0.00641111,
        "meta_inclination": 74.0585,
        "meta_ra_of_asc_node": 347.8199,
        "meta_arg_of_pericenter": 54.2821,
        "meta_mean_anomaly": 306.4287,
        "meta_ephemeris_type": 0,
        "meta_classification_type": "U",
        "meta_norad_cat_id": 35982,
        "meta_element_set_no": 999,
        "meta_rev_at_epoch": 86159,
        "meta_bstar": 0.00089096776,
        "meta_mean_motion_dot": 4.65e-05,
        "meta_mean_motion_ddot": 0,
        "tle_line1": "1 35982U 93036AVY 25346.27436027  .00004650  00000+0  89097-3 0  9999",
        "tle_line2": "2 35982  74.0585 347.8199 0064111  54.2821 306.4287 14.62746296861590"
      },
      "geometry": {
        "type": "Point",
        "coordinates": [
          -3.6667681187534096,
          32.16987962148872
        ]
      }
    }
  ]
}